[
    {
        "CCSDS_OMM_VERS": "3.0",
        "COMMENT": "GENERATED VIA SPACE-TRACK.ORG API",
        "CREATION_DATE": "2025-04-14T03:05:54",
        "ORIGINATOR": "18 SPCS",
        "OBJECT_NAME": "BEIDOU 3M27",
        "OBJECT_ID": "2024-168C",
        "CENTER_NAME": "EARTH",
        "REF_FRAME": "TEME",
        "TIME_SYSTEM": "UTC",
        "MEAN_ELEMENT_THEORY": "SGP4",
        "EPOCH": "2025-04-13T10:06:57.251808",
        "MEAN_MOTION": "1.86230530",
        "ECCENTRICITY": "0.00026820",
        "INCLINATION": "54.8436",
        "RA_OF_ASC_NODE": "317.1180",
        "ARG_OF_PERICENTER": "22.6001",
        "MEAN_ANOMALY": "155.2343",
        "EPHEMERIS_TYPE": "0",
        "CLASSIFICATION_TYPE": "U",
        "NORAD_CAT_ID": "61187",
        "ELEMENT_SET_NO": "999",
        "REV_AT_EPOCH": "125",
        "BSTAR": "0.00000000000000",
        "MEAN_MOTION_DOT": "-0.00000068",
        "MEAN_MOTION_DDOT": "0.0000000000000",
        "SEMIMAJOR_AXIS": "27906.236",
        "PERIOD": "773.235",
        "APOAPSIS": "21535.585",
        "PERIAPSIS": "21520.616",
        "OBJECT_TYPE": "PAYLOAD",
        "RCS_SIZE": "LARGE",
        "COUNTRY_CODE": "PRC",
        "LAUNCH_DATE": "2024-09-19",
        "SITE": "XSC",
        "DECAY_DATE": null,
        "FILE": "4701263",
        "GP_ID": "285550063",
        "TLE_LINE0": "0 BEIDOU 3M27",
        "TLE_LINE1": "1 61187U 24168C   25103.42149597 -.00000068  00000-0  00000-0 0  9991",
        "TLE_LINE2": "2 61187  54.8436 317.1180 0002682  22.6001 155.2343  1.86230530  1254"
    }
]